[{"OBJECT_NAME":"COSMOS 1408 DEB","OBJECT_ID":"1982-092RU","EPOCH":"2026-03-07T04:08:46.308480","MEAN_MOTION":15.46740809,"ECCENTRICITY":0.0013592,"INCLINATION":82.5659,"RA_OF_ASC_NODE":331.9043,"ARG_OF_PERICENTER":266.7664,"MEAN_ANOMALY":93.203,"EPHEMERIS_TYPE":0,"CLASSIFICATION_TYPE":"U","NORAD_CAT_ID":50032,"ELEMENT_SET_NO":999,"REV_AT_EPOCH":23908,"BSTAR":0.00012,"MEAN_MOTION_DOT":6.063e-5,"MEAN_MOTION_DDOT":0},{"OBJECT_NAME":"COSMOS 1408 DEB","OBJECT_ID":"1982-092SW","EPOCH":"2026-03-06T04:42:19.462176","MEAN_MOTION":15.70889234,"ECCENTRICITY":0.00148553,"INCLINATION":82.6135,"RA_OF_ASC_NODE":341.5706,"ARG_OF_PERICENTER":135.766,"MEAN_ANOMALY":224.4793,"EPHEMERIS_TYPE":0,"CLASSIFICATION_TYPE":"U","NORAD_CAT_ID":50058,"ELEMENT_SET_NO":999,"REV_AT_EPOCH":24111,"BSTAR":0.0003880124,"MEAN_MOTION_DOT":0.00048832,"MEAN_MOTION_DDOT":0},{"OBJECT_NAME":"COSMOS 1408 DEB","OBJECT_ID":"1982-092ADS","EPOCH":"2026-03-07T03:44:01.643712","MEAN_MOTION":15.33296447,"ECCENTRICITY":0.012505,"INCLINATION":82.1948,"RA_OF_ASC_NODE":127.3683,"ARG_OF_PERICENTER":263.3667,"MEAN_ANOMALY":95.3328,"EPHEMERIS_TYPE":0,"CLASSIFICATION_TYPE":"U","NORAD_CAT_ID":50404,"ELEMENT_SET_NO":999,"REV_AT_EPOCH":22478,"BSTAR":0.0036634,"MEAN_MOTION_DOT":0.00153975,"MEAN_MOTION_DDOT":0},{"OBJECT_NAME":"COSMOS 1408 DEB","OBJECT_ID":"1982-092ALR","EPOCH":"2026-03-07T01:39:05.403456","MEAN_MOTION":15.62211244,"ECCENTRICITY":0.0023186,"INCLINATION":82.5725,"RA_OF_ASC_NODE":346.0337,"ARG_OF_PERICENTER":193.0089,"MEAN_ANOMALY":167.0574,"EPHEMERIS_TYPE":0,"CLASSIFICATION_TYPE":"U","NORAD_CAT_ID":50621,"ELEMENT_SET_NO":999,"REV_AT_EPOCH":23564,"BSTAR":0.00042601,"MEAN_MOTION_DOT":0.00038092,"MEAN_MOTION_DDOT":0}]
