COSMOS 1408 DEB         
1 50032U 82092RU  26066.17275820  .00006063  00000+0  12000-3 0  9993
2 50032  82.5659 331.9043 0013592 266.7664  93.2030 15.46740809239080
COSMOS 1408 DEB         
1 50058U 82092SW  26065.19605859  .00048832  00000+0  38801-3 0  9998
2 50058  82.6135 341.5706 0014855 135.7660 224.4793 15.70889234241119
COSMOS 1408 DEB         
1 50404U 82092ADS 26066.15557458  .00153975  00000+0  36634-2 0  9997
2 50404  82.1948 127.3683 0125050 263.3667  95.3328 15.33296447224780
COSMOS 1408 DEB         
1 50621U 82092ALR 26066.06881254  .00038092  00000+0  42601-3 0  9996
2 50621  82.5725 346.0337 0023186 193.0089 167.0574 15.62211244235649
